KUIPER-00079            
1 64826U 25151L   25252.91668981 -.01004371  00000+0 -64807-1 0  9997
2 64826  51.9049  22.0472 0010386 349.3225  80.2367 15.10847053  5756
KUIPER-00080            
1 64827U 25151M   25252.91668981 -.01845725  00000+0 -11753+0 0  9994
2 64827  51.8916  22.0203 0003877   9.0813 157.8113 15.11793017  5415
KUIPER-00082            
1 64828U 25151N   25252.63312839  .00035843  00000+0  98259-3 0  9991
2 64828  51.8804  20.4513 0006940 336.3557  23.7110 15.36930841  8509
KUIPER-00083            
1 64829U 25151P   25252.91668981 -.00710684  00000+0 -32832-1 0  9993
2 64829  51.8824  20.1482 0008630 349.7428 310.4135 15.22003921  5423
KUIPER-00084            
1 64830U 25151Q   25252.91668981 -.00049968  00000+0 -44282-2 0  9998
2 64830  51.8958  25.3875 0013441 337.4014 220.6092 14.95821467  5175
KUIPER-00085            
1 64831U 25151R   25252.62740136  .00035439  00000+0  96532-3 0  9992
2 64831  51.8811  20.4172 0007704 335.2423  24.8193 15.37129966  8503
KUIPER-00086            
1 64832U 25151S   25252.91668981 -.00739657  00000+0 -40016-1 0  9991
2 64832  51.8850  21.0016 0010752 345.9152 246.6479 15.16664328  3997
KUIPER-00087            
1 64833U 25151T   25252.91668981  .00020042  00000+0  55730-3 0  9992
2 64833  51.8799  19.1266 0006502 342.2531 128.2078 15.36818883  5872
